STARLETTE               
1 07646U 75010A   22335.54389157 -.00000136  00000+0  73756-5 0  9996
2 07646  49.8210 170.7069 0205759 109.5174 252.8066 13.82315065415591
LAGEOS 1                
1 08820U 76039A   22335.46814097 -.00000001  00000+0  00000+0 0  9997
2 08820 109.8506  96.2109 0045144 219.4240 124.8688  6.38664955830512
AJISAI (EGS)            
1 16908U 86061A   22335.54823944 -.00000090  00000+0  55647-4 0  9999
2 16908  50.0060 165.2434 0011515 126.7788 326.5724 12.44498358319307
COSMOS 1989 (ETALON 1)  
1 19751U 89001C   22335.34382531  .00000065  00000+0  00000+0 0  9994
2 19751  64.3490 116.6438 0023919 213.6419 146.9755  2.13156138263794
COSMOS 2024 (ETALON 2)  
1 20026U 89039C   22335.50375868 -.00000050  00000+0  00000+0 0  9990
2 20026  65.5158 354.7215 0018663 218.7565 202.2911  2.13204238260928
LAGEOS 2                
1 22195U 92070B   22335.23459177 -.00000009  00000+0  00000+0 0  9998
2 22195  52.6788   4.4058 0138233 341.7148  19.3692  6.47293457711653
STELLA                  
1 22824U 93061B   22335.60287580 -.00000041  00000+0  22534-5 0  9994
2 22824  98.9521   0.6536 0007019  39.3301 127.7830 14.27395373520223
LARES                   
1 38077U 12006A   22335.40484715 -.00000029  00000+0  55934-4 0  9993
2 38077  69.4951 342.1419 0010039 197.4269 162.6415 12.54931264494858
